$NetBSD: patch-ad,v 1.7 2013/09/09 11:30:26 drochner Exp $

--- data/ssystem.ini.orig	2013-09-07 15:50:48.000000000 +0000
+++ data/ssystem.ini
@@ -1323,6 +1323,26 @@ orbit_MeanLongitude=90
 rot_obliquity=90
 hidden=true
 
+[mcnaught_2009R1]
+name=C/2009 R1 (McNaught)
+parent=Sun
+radius=1000
+oblateness=0.0
+halo=true
+color=1.0, 1.0, 1.0
+tex_halo=vomit.png
+tex_map=nomap.png
+coord_func=comet_orbit
+orbit_TimeAtPericenter=2455380.18520
+orbit_PericenterDistance=0.40504
+orbit_Eccentricity=1.0
+orbit_ArgOfPericenter=130.62161
+orbit_AscendingNode=322.62161
+orbit_Inclination=77.0332
+lighting=false
+albedo=0.015
+orbit_visualization_period=100.0
+
 [1ceres]
 name=Ceres
 minor_planet_number=1
